{"type":"FeatureCollection","features":[{"id":532,"type":"Feature","properties":{"DPTO_CCDGO":"20","MPIO_CCDGO":"032","MPIO_CNMBR":"ASTREA","MPIO_CRSLC":"Ordenanza 13 de Noviembre 26 de 1984","MPIO_NAREA":637.902772655,"MPIO_CCNCT":"20032","MPIO_NANO":2018,"DPTO_CNMBR":"CESAR","Shape_Leng":1.33587448029,"Shape_Area":0.0525264725742},"geometry":{"type":"Polygon","coordinates":[[[-73.78598143476219,9.523633177304038],[-73.78720558613611,9.492646440578968],[-73.86922372818877,9.456701825977882],[-73.94756941611966,9.378615249430702],[-73.97817320046767,9.389770474651728],[-74.13976118182514,9.49388591004797],[-74.03693246641583,9.591803998099198],[-73.86799957681485,9.600480284382218],[-73.80311955399708,9.636424898983302],[-73.78598143476219,9.523633177304038]]]}},{"id":533,"type":"Feature","properties":{"DPTO_CCDGO":"20","MPIO_CCDGO":"060","MPIO_CNMBR":"BOSCONIA","MPIO_CRSLC":"Ordenanza 1 de Noviembre 6 de 1979","MPIO_NAREA":586.20917207,"MPIO_CCNCT":"20060","MPIO_NANO":2018,"DPTO_CNMBR":"CESAR","Shape_Leng":1.27477068145,"Shape_Area":0.0483308888359},"geometry":{"type":"Polygon","coordinates":[[[-73.81291276498844,10.07395762154132],[-73.75660180178811,9.99215263658713],[-73.73579122843147,9.884318792783878],[-73.83861994384077,9.785161235263647],[-73.89737920978894,9.837218952961768],[-73.95858677848494,9.931418632605988],[-74.034484163668,9.998349983932144],[-74.03570831504192,10.00454733127716],[-73.92063808589342,10.054126110037274],[-73.81291276498844,10.07395762154132]]]}},{"id":534,"type":"Feature","properties":{"DPTO_CCDGO":"20","MPIO_CCDGO":"175","MPIO_CNMBR":"CHIMICHAGUA","MPIO_CRSLC":"Ordenanza 0054 de 1892","MPIO_NAREA":1376.42532217,"MPIO_CCNCT":"20175","MPIO_NANO":2018,"DPTO_CNMBR":"CESAR","Shape_Leng":2.47394551197,"Shape_Area":0.113242352016},"geometry":{"type":"Polygon","coordinates":[[[-73.78720558613611,9.492646440578968],[-73.75782595316203,9.477772806950933],[-73.73701537980538,9.36126267686466],[-73.69417008171818,9.319120714918563],[-73.68437687072682,9.239794668902379],[-73.6953942330921,9.217484218460326],[-73.63173836164825,9.06874788217998],[-73.51544398112583,9.130721355630124],[-73.42485677945574,9.122045069347104],[-73.41139111434262,9.053874248551946],[-73.43587414182102,8.999337591915818],[-73.49096095364743,8.981985019349779],[-73.5497202195956,9.006774408729836],[-73.5619617333348,9.063790004303968],[-73.69172177897035,9.037761145454908],[-73.79944709987532,9.058832126427957],[-73.86432712269308,9.112129313595082],[-73.89125845291933,9.174102787045225],[-73.96225923260671,9.187736951204258],[-73.94267281062399,9.289373447662493],[-73.98919056283295,9.351346921112638],[-73.98184565458943,9.38605206624472],[-73.97817320046767,9.389770474651728],[-73.94756941611966,9.378615249430702],[-73.86922372818877,9.456701825977882],[-73.78720558613611,9.492646440578968]]]}},{"id":535,"type":"Feature","properties":{"DPTO_CCDGO":"20","MPIO_CCDGO":"178","MPIO_CNMBR":"CHIRIGUANÁ","MPIO_CRSLC":"Ordenanza 04 de 1888","MPIO_NAREA":1114.48037122,"MPIO_CCNCT":"20178","MPIO_NANO":2018,"DPTO_CNMBR":"CESAR","Shape_Leng":2.48720581366,"Shape_Area":0.0917396883946},"geometry":{"type":"Polygon","coordinates":[[[-73.48606434815174,9.581888242347175],[-73.5313579489868,9.531069994118056],[-73.50197831601271,9.479012276419935],[-73.44566735281238,9.487688562702955],[-73.20695783489793,9.423236150314805],[-73.27061370634179,9.324078592794574],[-73.43954659594277,9.407123047217768],[-73.50565077013447,9.324078592794574],[-73.57787570119577,9.276978752972465],[-73.64030742126569,9.284415569786482],[-73.68437687072682,9.239794668902379],[-73.69417008171818,9.319120714918563],[-73.73701537980538,9.36126267686466],[-73.75782595316203,9.477772806950933],[-73.78720558613611,9.492646440578968],[-73.78598143476219,9.523633177304038],[-73.63541081577002,9.523633177304038],[-73.6464281781353,9.568254078188144],[-73.55461682509127,9.609156570665238],[-73.48606434815174,9.581888242347175]]]}},{"id":536,"type":"Feature","properties":{"DPTO_CCDGO":"20","MPIO_CCDGO":"228","MPIO_CNMBR":"CURUMANÍ","MPIO_CRSLC":"Ordenanza 36 del 16 de Noviembre de 1965","MPIO_NAREA":915.1712714,"MPIO_CCNCT":"20228","MPIO_NANO":2018,"DPTO_CNMBR":"CESAR","Shape_Leng":1.60625339304,"Shape_Area":0.0752924995416},"geometry":{"type":"Polygon","coordinates":[[[-73.27061370634179,9.324078592794574],[-73.3685458162554,9.172863317576223],[-73.42485677945574,9.122045069347104],[-73.51544398112583,9.130721355630124],[-73.63173836164825,9.06874788217998],[-73.6953942330921,9.217484218460326],[-73.68437687072682,9.239794668902379],[-73.64030742126569,9.284415569786482],[-73.57787570119577,9.276978752972465],[-73.50565077013447,9.324078592794574],[-73.43954659594277,9.407123047217768],[-73.27061370634179,9.324078592794574]]]}},{"id":537,"type":"Feature","properties":{"DPTO_CCDGO":"20","MPIO_CCDGO":"238","MPIO_CNMBR":"EL COPEY","MPIO_CRSLC":"Ordenanza 8 de Noviembre 3 de 1971","MPIO_NAREA":956.450835898,"MPIO_CCNCT":"20238","MPIO_NANO":2018,"DPTO_CNMBR":"CESAR","Shape_Leng":1.67499541363,"Shape_Area":0.0789168644478},"geometry":{"type":"Polygon","coordinates":[[[-73.7921021916318,10.392501275075062],[-73.73456707705755,10.351598782597966],[-73.81413691636236,10.253680694546738],[-73.78598143476219,10.139649503398473],[-73.81291276498844,10.07395762154132],[-73.92063808589342,10.054126110037274],[-74.03570831504192,10.00454733127716],[-74.07365700763344,10.051647171099269],[-74.065087948016,10.166917831716537],[-73.97817320046767,10.277230614457793],[-73.95369017298927,10.339204087907937],[-73.89248260429325,10.391261805606058],[-73.7921021916318,10.392501275075062]]]}},{"id":538,"type":"Feature","properties":{"DPTO_CCDGO":"20","MPIO_CCDGO":"250","MPIO_CNMBR":"EL PASO","MPIO_CRSLC":"Ordenanza 29 de 1979","MPIO_NAREA":813.932821215,"MPIO_CCNCT":"20250","MPIO_NANO":2018,"DPTO_CNMBR":"CESAR","Shape_Leng":2.32463008261,"Shape_Area":0.0670516401026},"geometry":{"type":"Polygon","coordinates":[[[-73.61827269653513,9.818626910926726],[-73.62072099928297,9.757892906945584],[-73.61949684790905,9.723187761813504],[-73.63051421027433,9.641382776859313],[-73.48973680227351,9.673608983053388],[-73.4468915041863,9.63146702110729],[-73.48606434815174,9.581888242347175],[-73.55461682509127,9.609156570665238],[-73.6464281781353,9.568254078188144],[-73.63541081577002,9.523633177304038],[-73.78598143476219,9.523633177304038],[-73.80311955399708,9.636424898983302],[-73.8104644622406,9.673608983053388],[-73.83984409521469,9.736821925972535],[-73.83861994384077,9.785161235263647],[-73.73579122843147,9.884318792783878],[-73.74191198530107,9.848374178182794],[-73.61827269653513,9.818626910926726]]]}},{"id":539,"type":"Feature","properties":{"DPTO_CCDGO":"20","MPIO_CCDGO":"295","MPIO_CNMBR":"GAMARRA","MPIO_CRSLC":"Ordenanza 15 de Abril 9 de 1929","MPIO_NAREA":326.880594738,"MPIO_CCNCT":"20295","MPIO_NANO":2018,"DPTO_CNMBR":"CESAR","Shape_Leng":0.994130784465,"Shape_Area":0.0268311134935},"geometry":{"type":"Polygon","coordinates":[[[-73.63785911851785,8.487436701217627],[-73.61460024241337,8.389518613166398],[-73.67948026523113,8.333742487061269],[-73.6953942330921,8.223429704320012],[-73.77129161827516,8.15401941405585],[-73.75048104491852,8.27424795254913],[-73.7492568935446,8.405631716263436],[-73.74680859079675,8.449013147678537],[-73.63785911851785,8.487436701217627]]]}},{"id":540,"type":"Feature","properties":{"DPTO_CCDGO":"20","MPIO_CCDGO":"310","MPIO_CNMBR":"GONZÁLEZ","MPIO_CRSLC":"Ordenanza 31 de 1915","MPIO_NAREA":73.0061217354,"MPIO_CCNCT":"20310","MPIO_NANO":2018,"DPTO_CNMBR":"CESAR","Shape_Leng":0.434873425863,"Shape_Area":0.00599288305829},"geometry":{"type":"Polygon","coordinates":[[[-73.34895939427268,8.391997552104405],[-73.36120090801188,8.327545139716255],[-73.41139111434262,8.369687101662352],[-73.4101669629687,8.430421105643495],[-73.41383941709046,8.45892890343056],[-73.34283863740308,8.436618452988508],[-73.34895939427268,8.391997552104405]]]}},{"id":541,"type":"Feature","properties":{"DPTO_CCDGO":"20","MPIO_CCDGO":"383","MPIO_CNMBR":"LA GLORIA","MPIO_CRSLC":"Ordenanza 32 de 1916","MPIO_NAREA":802.872114042,"MPIO_CCNCT":"20383","MPIO_NANO":2018,"DPTO_CNMBR":"CESAR","Shape_Leng":1.95406000757,"Shape_Area":0.0659476274155},"geometry":{"type":"Polygon","coordinates":[[[-73.57665154982185,8.50602874325267],[-73.63785911851785,8.487436701217627],[-73.74680859079675,8.449013147678537],[-73.82025767323196,8.662201896347034],[-73.78965388888396,8.751443698115242],[-73.75905010453596,8.740288472894216],[-73.80801615949277,8.669638713161051],[-73.6770319624833,8.646088793249996],[-73.62194515065688,8.685751816258088],[-73.58644476081321,8.773754148557293],[-73.45546056380374,8.797304068468348],[-73.42852923357749,8.82333292731741],[-73.46280547204726,8.745246350770227],[-73.55216852234344,8.606425770241904],[-73.5313579489868,8.528339193694721],[-73.57665154982185,8.50602874325267]]]}},{"id":542,"type":"Feature","properties":{"DPTO_CCDGO":"20","MPIO_CCDGO":"400","MPIO_CNMBR":"LA JAGUA DE IBIRICO","MPIO_CRSLC":"Ordenanza 5 de Diciembre 5 de 1979","MPIO_NAREA":755.906758614,"MPIO_CCNCT":"20400","MPIO_NANO":2018,"DPTO_CNMBR":"CESAR","Shape_Leng":2.08188528778,"Shape_Area":0.062239997391},"geometry":{"type":"Polygon","coordinates":[[[-73.06985288101887,9.632706490576293],[-73.08454269750592,9.557098852967117],[-73.17635405054993,9.501322726861988],[-73.20695783489793,9.423236150314805],[-73.44566735281238,9.487688562702955],[-73.50197831601271,9.479012276419935],[-73.5313579489868,9.531069994118056],[-73.48606434815174,9.581888242347175],[-73.4468915041863,9.63146702110729],[-73.48973680227351,9.673608983053388],[-73.37833902724677,9.647580124204328],[-73.32325221542035,9.58808558969219],[-73.2412340733677,9.598001345444212],[-73.1861472615413,9.63146702110729],[-73.06985288101887,9.632706490576293]]]}},{"id":543,"type":"Feature","properties":{"DPTO_CCDGO":"20","MPIO_CCDGO":"443","MPIO_CNMBR":"MANAURE BALCÓN DEL CESAR","MPIO_CRSLC":"Ordenanza 19 de Noviembre 28 de 1980","MPIO_NAREA":136.782085172,"MPIO_CCNCT":"20443","MPIO_NANO":2018,"DPTO_CNMBR":"CESAR","Shape_Leng":0.669730942287,"Shape_Area":0.011288697231},"geometry":{"type":"Polygon","coordinates":[[[-72.90581659691357,10.352838252066968],[-73.04781815628832,10.354077721535973],[-73.12861214696704,10.398698622420076],[-73.08821515162768,10.424727481269137],[-72.98661058759231,10.399938091889078],[-72.9009199914179,10.435882706490162],[-72.90581659691357,10.352838252066968]]]}},{"id":544,"type":"Feature","properties":{"DPTO_CCDGO":"20","MPIO_CCDGO":"517","MPIO_CNMBR":"PAILITAS","MPIO_CRSLC":"Ordenanza 38 de 1968","MPIO_NAREA":531.842991444,"MPIO_CCNCT":"20517","MPIO_NANO":2018,"DPTO_CNMBR":"CESAR","Shape_Leng":1.13822518048,"Shape_Area":0.0437210979528},"geometry":{"type":"Polygon","coordinates":[[[-73.43587414182102,8.999337591915818],[-73.42608093082966,8.900180034395587],[-73.4468915041863,8.87043276713952],[-73.53380625173463,8.829530274662423],[-73.61337609103944,8.890264278643565],[-73.67335950836154,8.840685499883449],[-73.6953942330921,8.885306400767552],[-73.69172177897035,9.037761145454908],[-73.5619617333348,9.063790004303968],[-73.5497202195956,9.006774408729836],[-73.49096095364743,8.981985019349779],[-73.43587414182102,8.999337591915818]]]}},{"id":545,"type":"Feature","properties":{"DPTO_CCDGO":"20","MPIO_CCDGO":"550","MPIO_CNMBR":"PELAYA","MPIO_CRSLC":"Ordenanza 4 de 1983","MPIO_NAREA":423.387373107,"MPIO_CCNCT":"20550","MPIO_NANO":2018,"DPTO_CNMBR":"CESAR","Shape_Leng":1.42386061143,"Shape_Area":0.034789789968},"geometry":{"type":"Polygon","coordinates":[[[-73.4468915041863,8.87043276713952],[-73.42852923357749,8.82333292731741],[-73.45546056380374,8.797304068468348],[-73.58644476081321,8.773754148557293],[-73.62194515065688,8.685751816258088],[-73.6770319624833,8.646088793249996],[-73.80801615949277,8.669638713161051],[-73.75905010453596,8.740288472894216],[-73.70273914133563,8.748964759177236],[-73.67335950836154,8.840685499883449],[-73.61337609103944,8.890264278643565],[-73.53380625173463,8.829530274662423],[-73.4468915041863,8.87043276713952]]]}},{"id":546,"type":"Feature","properties":{"DPTO_CCDGO":"20","MPIO_CCDGO":"614","MPIO_CNMBR":"RÍO DE ORO","MPIO_CRSLC":"Ordenanza 10 del 8 de Enero de 1913","MPIO_NAREA":549.438020669,"MPIO_CCNCT":"20614","MPIO_NANO":2018,"DPTO_CNMBR":"CESAR","Shape_Leng":1.35845770527,"Shape_Area":0.045081021777},"geometry":{"type":"Polygon","coordinates":[[[-73.36120090801188,8.327545139716255],[-73.40527035747301,8.245740154762064],[-73.43220168769926,8.140385249896818],[-73.39302884373382,8.113116921578756],[-73.43954659594277,8.079651245915677],[-73.63908326989177,8.066017081756646],[-73.58644476081321,8.114356391047759],[-73.6035828800481,8.178808803435908],[-73.55828927921304,8.20483766228497],[-73.53625455448247,8.280445299894145],[-73.45668471517766,8.361010815379332],[-73.41139111434262,8.369687101662352],[-73.36120090801188,8.327545139716255]]]}},{"id":547,"type":"Feature","properties":{"DPTO_CCDGO":"20","MPIO_CCDGO":"710","MPIO_CNMBR":"SAN ALBERTO","MPIO_CRSLC":"Ordenanza 003 del 19 de Noviembre de 1976","MPIO_NAREA":550.211547753,"MPIO_CCNCT":"20710","MPIO_NANO":2018,"DPTO_CNMBR":"CESAR","Shape_Leng":1.58125010328,"Shape_Area":0.0451021262246},"geometry":{"type":"Polygon","coordinates":[[[-73.34895939427268,7.829278413177095],[-73.41139111434262,7.716486691497833],[-73.48116774265607,7.676823668489741],[-73.5803240039436,7.738797141939884],[-73.63296251302216,7.748712897691908],[-73.48606434815174,7.826799474239088],[-73.44321905006454,7.9383517264493495],[-73.4040462060991,7.918520214945303],[-73.29754503656804,7.984212096802455],[-73.27918276595923,7.935872787511343],[-73.35140769702052,7.892491356096242],[-73.34895939427268,7.829278413177095]]]}},{"id":548,"type":"Feature","properties":{"DPTO_CCDGO":"20","MPIO_CCDGO":"750","MPIO_CNMBR":"SAN DIEGO","MPIO_CRSLC":"Ordenanza 19 de Noviembre 25 de 1983","MPIO_NAREA":645.999444625,"MPIO_CCNCT":"20750","MPIO_NANO":2018,"DPTO_CNMBR":"CESAR","Shape_Leng":2.20531968657,"Shape_Area":0.0532870059938},"geometry":{"type":"Polygon","coordinates":[[[-73.58889306356104,9.865726750748836],[-73.59378966905672,9.894234548535902],[-73.53503040310855,10.014463087029181],[-73.42485677945574,10.091310194107361],[-73.3734424217511,10.165678362247533],[-73.29999333931588,10.214017671538645],[-73.23633746787203,10.356556660473977],[-73.11881893597568,10.34044355737694],[-73.11881893597568,10.200383507379614],[-73.16533668818465,10.200383507379614],[-73.16533668818465,10.109902236142403],[-73.22409595413282,10.118578522425423],[-73.3918046923599,10.081394438355337],[-73.42730508220357,10.020660434374197],[-73.49830586189096,10.016942025967188],[-73.54727191684776,9.91034765163294],[-73.58889306356104,9.865726750748836]]]}},{"id":549,"type":"Feature","properties":{"DPTO_CCDGO":"20","MPIO_CCDGO":"787","MPIO_CNMBR":"TAMALAMEQUE","MPIO_CRSLC":"Ordenanza 32 de 1915","MPIO_NAREA":513.298492593,"MPIO_CCNCT":"20787","MPIO_NANO":2018,"DPTO_CNMBR":"CESAR","Shape_Leng":1.04139329607,"Shape_Area":0.0421944983508},"geometry":{"type":"Polygon","coordinates":[[[-73.69172177897035,9.037761145454908],[-73.6953942330921,8.885306400767552],[-73.67335950836154,8.840685499883449],[-73.70273914133563,8.748964759177236],[-73.75905010453596,8.740288472894216],[-73.78965388888396,8.751443698115242],[-73.81780937048413,8.835727622007438],[-73.86799957681485,8.936124648996671],[-73.79944709987532,9.058832126427957],[-73.69172177897035,9.037761145454908]]]}},{"id":550,"type":"Feature","properties":{"DPTO_CCDGO":"20","MPIO_CCDGO":"001","MPIO_CNMBR":"VALLEDUPAR","MPIO_CRSLC":"1915","MPIO_NAREA":4185.7918013,"MPIO_CCNCT":"20001","MPIO_NANO":2018,"DPTO_CNMBR":"CESAR","Shape_Leng":4.87780920408,"Shape_Area":0.345529319621},"geometry":{"type":"Polygon","coordinates":[[[-73.07597363788848,10.63667676046863],[-73.09923251399296,10.552392836576434],[-73.16288838543682,10.489179893657287],[-73.17757820192386,10.456953687463212],[-73.23633746787203,10.356556660473977],[-73.29999333931588,10.214017671538645],[-73.3734424217511,10.165678362247533],[-73.42485677945574,10.091310194107361],[-73.53503040310855,10.014463087029181],[-73.59378966905672,9.894234548535902],[-73.58889306356104,9.865726750748836],[-73.61827269653513,9.818626910926726],[-73.74191198530107,9.848374178182794],[-73.73579122843147,9.884318792783878],[-73.75660180178811,9.99215263658713],[-73.81291276498844,10.07395762154132],[-73.78598143476219,10.139649503398473],[-73.81413691636236,10.253680694546738],[-73.73456707705755,10.351598782597966],[-73.65499723775274,10.319372576403891],[-73.51421982975191,10.33176727109392],[-73.45056395830807,10.360275068880986],[-73.52034058662151,10.595774267991535],[-73.5191164352476,10.723439623298832],[-73.5619617333348,10.740792195864872],[-73.5986862745524,10.836231344978094],[-73.45546056380374,10.867218081703166],[-73.29142427969843,10.862260203827155],[-73.25592388985476,10.826315589226072],[-73.26326879809827,10.732115909581852],[-73.21675104588931,10.73087644011285],[-73.11392233048001,10.678818722414729],[-73.07597363788848,10.63667676046863]]]}},{"id":551,"type":"Feature","properties":{"DPTO_CCDGO":"20","MPIO_CCDGO":"013","MPIO_CNMBR":"AGUSTÍN CODAZZI","MPIO_CRSLC":"Decreto 179 de Feb 25 de 1958","MPIO_NAREA":1753.09250676,"MPIO_CCNCT":"20013","MPIO_NANO":2018,"DPTO_CNMBR":"CESAR","Shape_Leng":2.90706082204,"Shape_Area":0.144507220385},"geometry":{"type":"Polygon","coordinates":[[[-72.99885210133151,9.921502876853966],[-73.17145744505426,9.792598052077665],[-73.26694125222004,9.817387441457722],[-73.32692466954212,9.775245479511625],[-73.37221827037718,9.785161235263647],[-73.49463340776919,9.740540334379544],[-73.58644476081321,9.75169555960057],[-73.61949684790905,9.723187761813504],[-73.62072099928297,9.757892906945584],[-73.45178810968198,9.909108182163937],[-73.4652537747951,9.95372908304804],[-73.34895939427268,10.061562926851291],[-73.20573368352402,10.041731415347245],[-72.99885210133151,10.16443889277853],[-72.9070407482875,10.268554328174773],[-72.91193735378317,10.114860114018414],[-72.99885210133151,9.921502876853966]]]}},{"id":552,"type":"Feature","properties":{"DPTO_CCDGO":"20","MPIO_CCDGO":"045","MPIO_CNMBR":"BECERRIL","MPIO_CRSLC":"Ordenanza 020 del 24 de Noviembre de 1977","MPIO_NAREA":1225.40113276,"MPIO_CCNCT":"20045","MPIO_NANO":2018,"DPTO_CNMBR":"CESAR","Shape_Leng":2.6545466764,"Shape_Area":0.100945045244},"geometry":{"type":"Polygon","coordinates":[[[-73.06985288101887,9.632706490576293],[-73.1861472615413,9.63146702110729],[-73.2412340733677,9.598001345444212],[-73.32325221542035,9.58808558969219],[-73.37833902724677,9.647580124204328],[-73.48973680227351,9.673608983053388],[-73.63051421027433,9.641382776859313],[-73.61949684790905,9.723187761813504],[-73.58644476081321,9.75169555960057],[-73.49463340776919,9.740540334379544],[-73.37221827037718,9.785161235263647],[-73.32692466954212,9.775245479511625],[-73.26694125222004,9.817387441457722],[-73.17145744505426,9.792598052077665],[-72.99885210133151,9.921502876853966],[-72.97192077110526,9.85457152552781],[-72.98783473896623,9.793837521546669],[-73.06985288101887,9.632706490576293]]]}},{"id":553,"type":"Feature","properties":{"DPTO_CCDGO":"20","MPIO_CCDGO":"621","MPIO_CNMBR":"LA PAZ","MPIO_CRSLC":"Ordenananza 08 de 1935","MPIO_NAREA":1073.10115197,"MPIO_CCNCT":"20621","MPIO_NANO":2018,"DPTO_CNMBR":"CESAR","Shape_Leng":3.4927496455,"Shape_Area":0.0885113858144},"geometry":{"type":"Polygon","coordinates":[[[-73.12861214696704,10.398698622420076],[-73.04781815628832,10.354077721535973],[-72.90581659691357,10.352838252066968],[-72.9070407482875,10.268554328174773],[-72.99885210133151,10.16443889277853],[-73.20573368352402,10.041731415347245],[-73.34895939427268,10.061562926851291],[-73.4652537747951,9.95372908304804],[-73.45178810968198,9.909108182163937],[-73.62072099928297,9.757892906945584],[-73.61827269653513,9.818626910926726],[-73.58889306356104,9.865726750748836],[-73.54727191684776,9.91034765163294],[-73.49830586189096,10.016942025967188],[-73.42730508220357,10.020660434374197],[-73.3918046923599,10.081394438355337],[-73.22409595413282,10.118578522425423],[-73.16533668818465,10.109902236142403],[-73.16533668818465,10.200383507379614],[-73.11881893597568,10.200383507379614],[-73.11881893597568,10.34044355737694],[-73.23633746787203,10.356556660473977],[-73.17757820192386,10.456953687463212],[-73.12861214696704,10.398698622420076]]]}},{"id":554,"type":"Feature","properties":{"DPTO_CCDGO":"20","MPIO_CCDGO":"570","MPIO_CNMBR":"PUEBLO BELLO","MPIO_CRSLC":"ORD 37 DE DICIEMBRE 10 DE 1997","MPIO_NAREA":743.801820297,"MPIO_CCNCT":"20570","MPIO_NANO":2018,"DPTO_CNMBR":"CESAR","Shape_Leng":1.86003188788,"Shape_Area":0.0614181410977},"geometry":{"type":"Polygon","coordinates":[[[-73.73456707705755,10.351598782597966],[-73.7921021916318,10.392501275075062],[-73.74191198530107,10.43464323702116],[-73.65989384324841,10.455714217994208],[-73.64030742126569,10.500335118878313],[-73.56318588470872,10.504053527285322],[-73.61704854516121,10.64535304675165],[-73.5619617333348,10.740792195864872],[-73.5191164352476,10.723439623298832],[-73.52034058662151,10.595774267991535],[-73.45056395830807,10.360275068880986],[-73.51421982975191,10.33176727109392],[-73.65499723775274,10.319372576403891],[-73.73456707705755,10.351598782597966]]]}},{"id":555,"type":"Feature","properties":{"DPTO_CCDGO":"20","MPIO_CCDGO":"770","MPIO_CNMBR":"SAN MARTÍN","MPIO_CRSLC":"Ordenanza 15 de Noviembre 16 de 1983","MPIO_NAREA":993.291243007,"MPIO_CCNCT":"20770","MPIO_NANO":2018,"DPTO_CNMBR":"CESAR","Shape_Leng":2.20145087156,"Shape_Area":0.0814486107071},"geometry":{"type":"Polygon","coordinates":[[[-73.30978655030724,8.015198833527528],[-73.29754503656804,7.984212096802455],[-73.4040462060991,7.918520214945303],[-73.44321905006454,7.9383517264493495],[-73.48606434815174,7.826799474239088],[-73.63296251302216,7.748712897691908],[-73.75292934766635,7.751191836629912],[-73.75048104491852,7.803249554328033],[-73.67091120561369,7.893730825565244],[-73.72110141194443,8.009001486182513],[-73.61582439378729,8.010240955651517],[-73.63908326989177,8.066017081756646],[-73.43954659594277,8.079651245915677],[-73.39302884373382,8.113116921578756],[-73.36609751350757,8.022635650341545],[-73.30978655030724,8.015198833527528]]]}},{"id":556,"type":"Feature","properties":{"DPTO_CCDGO":"20","MPIO_CCDGO":"011","MPIO_CNMBR":"AGUACHICA","MPIO_CRSLC":"Ordenanza 40 de 1914","MPIO_NAREA":877.666639619,"MPIO_CCNCT":"20011","MPIO_NANO":2018,"DPTO_CNMBR":"CESAR","Shape_Leng":1.96504190989,"Shape_Area":0.0720235452057},"geometry":{"type":"Polygon","coordinates":[[[-73.49218510502135,8.421744819360473],[-73.45668471517766,8.361010815379332],[-73.53625455448247,8.280445299894145],[-73.55828927921304,8.20483766228497],[-73.6035828800481,8.178808803435908],[-73.58644476081321,8.114356391047759],[-73.63908326989177,8.066017081756646],[-73.61582439378729,8.010240955651517],[-73.72110141194443,8.009001486182513],[-73.76394671003163,8.06353814281864],[-73.77496407239691,8.145343127772831],[-73.77129161827516,8.15401941405585],[-73.6953942330921,8.223429704320012],[-73.67948026523113,8.333742487061269],[-73.61460024241337,8.389518613166398],[-73.63785911851785,8.487436701217627],[-73.57665154982185,8.50602874325267],[-73.49218510502135,8.421744819360473]]]}}]}